0 DMSP 5D-2 F13 DEB
1 23594U 95015D   13281.73452490  .00014002  00000-0  21892-2 0  6417
2 23594 098.7120 191.9808 0002333 096.2060 317.0194 14.72912925965065
0 DMSP 5D-2 F13 DEB
1 23594U 95015D   13282.35378866  .00025183  00000-0  39197-2 0  6420
2 23594 098.7119 192.6449 0002444 097.7365 357.2088 14.72954960965152
0 DMSP 5D-2 F13 DEB
1 23594U 95015D   13283.03928895  .00021357  00000-0  33258-2 0  6431
2 23594 098.7120 193.3800 0002519 097.1136 030.6682 14.72976024965254
0 DMSP 5D-2 F13 DEB
1 23594U 95015D   13284.19591066  .00019944  00000-0  31043-2 0  6445
2 23594 098.7120 194.6205 0002558 095.5309 041.9363 14.73014533965423
0 DMSP 5D-2 F13 DEB
1 23594U 95015D   13285.47104558  .00016886  00000-0  26287-2 0  6450
2 23594 098.7121 195.9882 0002692 094.0199 321.3889 14.73050947965617
0 DMSP 5D-2 F13 DEB
1 23594U 95015D   13287.50827725  .00018134  00000-0  28179-2 0  6465
2 23594 098.7128 198.1732 0002891 091.7693 320.8924 14.73109717965914
0 DMSP 5D-2 F13 DEB
1 23594U 95015D   13288.06584958  .00030831  00000-0  47720-2 0  6477
2 23594 098.7130 198.7714 0003019 092.0429 035.8214 14.73143394965999
0 DMSP 5D-2 F13 DEB
1 23594U 95015D   13289.47833292  .00024561  00000-0  38016-2 0  6483
2 23594 098.7132 200.2864 0002986 091.6954 322.7686 14.73204283966207
0 DMSP 5D-2 F13 DEB
1 23594U 95015D   13290.70099111  .00026146  00000-0  40410-2 0  6498
2 23594 098.7132 201.5981 0003163 089.9316 325.2198 14.73250413966382
0 DMSP 5D-2 F13 DEB
1 23594U 95015D   13292.07256937  .00019876  00000-0  30727-2 0  6505
2 23594 098.7132 203.0696 0003273 088.9819 036.4805 14.73309266966580
0 DMSP 5D-2 F13 DEB
1 23594U 95015D   13294.17490709  .00024910  00000-0  38390-2 0  6515
2 23594 098.7127 205.3259 0003431 087.2292 022.5824 14.73386532966899
0 DMSP 5D-2 F13 DEB
1 23594U 95015D   13295.72607455  .00025362  00000-0  39028-2 0  6527
2 23594 098.7125 206.9907 0003552 085.0633 327.7675 14.73446233967129
